NAVSTAR 77 (USA 289)    
1 43873U 18109A   24243.67311595 -.00000018  00000+0  00000+0 0  9994
2 43873  55.3234 118.0833 0030121 192.5633  17.9598  2.00559267 41920
